[{"OBJECT_NAME":"STARLINK-31126","OBJECT_ID":"2023-211J","EPOCH":"2026-03-09T01:26:59.563968","MEAN_MOTION":15.27578005,"ECCENTRICITY":0.00015842,"INCLINATION":43.0014,"RA_OF_ASC_NODE":88.3695,"ARG_OF_PERICENTER":283.5016,"MEAN_ANOMALY":76.5659,"EPHEMERIS_TYPE":0,"CLASSIFICATION_TYPE":"U","NORAD_CAT_ID":58675,"ELEMENT_SET_NO":999,"REV_AT_EPOCH":12237,"BSTAR":1.5354581e-5,"MEAN_MOTION_DOT":1.6e-6,"MEAN_MOTION_DDOT":0},{"OBJECT_NAME":"239ALFEROV (RS61S)","OBJECT_ID":"2025-155F","EPOCH":"2026-03-09T21:46:33.382848","MEAN_MOTION":15.29933217,"ECCENTRICITY":0.00084878,"INCLINATION":97.4469,"RA_OF_ASC_NODE":37.6373,"ARG_OF_PERICENTER":151.5904,"MEAN_ANOMALY":208.58,"EPHEMERIS_TYPE":0,"CLASSIFICATION_TYPE":"U","NORAD_CAT_ID":64881,"ELEMENT_SET_NO":999,"REV_AT_EPOCH":6561,"BSTAR":0.00067233359,"MEAN_MOTION_DOT":0.00019457,"MEAN_MOTION_DDOT":0}]
